OBJECT_NAME,OBJECT_ID,EPOCH,MEAN_MOTION,ECCENTRICITY,INCLINATION,RA_OF_ASC_NODE,ARG_OF_PERICENTER,MEAN_ANOMALY,EPHEMERIS_TYPE,CLASSIFICATION_TYPE,NORAD_CAT_ID,ELEMENT_SET_NO,REV_AT_EPOCH,BSTAR,MEAN_MOTION_DOT,MEAN_MOTION_DDOT
STARLINK-3446,2022-016AK,2022-05-16T22:00:00.999936,15.10562335,.000156,53.2175,91.5207,53.0220,257.3131,0,U,51747,999,1443,-.46462E-1,-.721655E-2,0
STARLINK-3501,2022-016AL,2022-05-16T22:00:00.999936,15.44955233,.0001478,53.2177,84.6263,48.7765,63.5580,0,U,51748,999,1446,-.16252E-1,-.719179E-2,0
STARLINK-3451,2022-016AM,2022-05-17T06:00:00.999648,15.08853187,.0001828,53.2174,90.0197,43.7404,116.4721,0,U,51749,999,1446,-.17171E-2,-.27522E-3,0
STARLINK-3505,2022-016AN,2022-05-16T22:00:00.999936,15.45351153,.0001355,53.2176,84.6500,58.2475,60.2398,0,U,51750,999,1451,-.16033E-1,-.719192E-2,0
STARLINK-3506,2022-016AP,2022-05-16T22:00:00.999936,15.44757373,.0001358,53.2176,84.6142,55.6855,53.4343,0,U,51751,999,1451,-.16366E-1,-.719296E-2,0
STARLINK-3511,2022-016AQ,2022-05-16T22:00:00.999936,15.45549027,.0001509,53.2176,84.6618,48.2879,73.1376,0,U,51752,999,1451,-.15921E-1,-.719087E-2,0
STARLINK-3507,2022-016AR,2022-05-16T22:00:00.999936,15.45153204,.0001372,53.2177,84.6381,56.3241,59.1330,0,U,51753,999,1446,-.16143E-1,-.719212E-2,0
STARLINK-3457,2022-016AS,2022-05-16T22:00:00.999936,15.45891101,.0001444,53.2177,84.6817,53.2121,73.3101,0,U,51754,999,1451,-.15734E-1,-.719073E-2,0
STARLINK-3460,2022-016AT,2022-05-16T22:00:00.999936,15.45746967,.0001399,53.2176,84.6734,56.6397,67.6318,0,U,51755,999,1451,-.15812E-1,-.719043E-2,0
STARLINK-3513,2022-016AU,2022-05-16T22:00:00.999936,15.47384456,.0001551,53.2177,84.7749,47.4031,91.4210,0,U,51756,999,1446,-.14938E-1,-.719072E-2,0
STARLINK-3459,2022-016AV,2022-05-16T22:00:00.999936,15.47582372,.0001664,53.2177,84.7859,42.6681,98.1471,0,U,51757,999,1451,-.14834E-1,-.719045E-2,0
STARLINK-3458,2022-016AW,2022-05-16T22:00:00.999936,15.47726543,.0001641,53.2177,84.7939,42.5240,99.9196,0,U,51758,999,1453,-.14761E-1,-.719116E-2,0
STARLINK-3456,2022-016AX,2022-05-16T22:00:00.999936,15.47771462,.0001358,53.2177,84.7954,62.2231,81.3159,0,U,51759,999,130,-.14741E-1,-.719217E-2,0
STARLINK-3622,2022-017A,2022-05-16T22:00:00.999936,15.23312257,.0001652,53.2175,112.0668,42.1287,34.9239,0,U,51768,999,1378,-.32218E-1,-.722259E-2,0
STARLINK-3621,2022-017B,2022-05-16T22:00:00.999936,15.23708732,.0001573,53.2175,112.0780,49.2491,54.1280,0,U,51769,999,1378,-.31881E-1,-.723148E-2,0
STARLINK-3612,2022-017C,2022-05-16T22:00:00.999936,15.23510407,.0001749,53.2175,112.0724,39.1703,51.0908,0,U,51770,999,1378,-.32043E-1,-.722588E-2,0
STARLINK-3614,2022-017D,2022-05-16T22:00:00.999936,15.23853005,.0001774,53.2175,112.0819,40.3752,72.7314,0,U,51771,999,1378,-.31752E-1,-.72335E-2,0
STARLINK-3623,2022-017E,2022-05-16T22:00:00.999936,15.24294162,.0001758,53.2175,112.0938,43.6814,98.8190,0,U,51772,999,130,-.31365E-1,-.723998E-2,0
STARLINK-3624,2022-017F,2022-05-16T22:00:00.999936,15.23897954,.0001697,53.2175,112.0829,43.7928,72.9276,0,U,51773,999,130,-.31721E-1,-.72359E-2,0
STARLINK-3629,2022-017G,2022-05-16T22:00:00.999936,15.24690322,.0001603,53.2174,112.1044,53.8943,114.0173,0,U,51774,999,130,-.31012E-1,-.724378E-2,0
STARLINK-3620,2022-017H,2022-05-16T22:00:00.999936,15.24096077,.0001672,53.2175,112.0883,45.8043,83.8521,0,U,51775,999,130,-.31545E-1,-.723839E-2,0
STARLINK-3608,2022-017J,2022-05-16T22:00:00.999936,15.24888360,.000172,53.2174,112.1096,47.2777,133.2012,0,U,51776,999,130,-.30834E-1,-.724531E-2,0
STARLINK-3625,2022-017K,2022-05-16T22:00:00.999936,15.24492322,.0001698,53.2175,112.0991,46.6965,108.5556,0,U,51777,999,130,-.31195E-1,-.724341E-2,0
STARLINK-3615,2022-017L,2022-05-16T22:00:00.999936,15.55348289,.0001098,53.2174,106.6828,86.4647,258.9944,0,U,51778,999,1387,-.11228E-1,-.7107E-2,0
STARLINK-3611,2022-017M,2022-05-16T22:00:00.999936,15.25086246,.0001775,53.2173,112.1147,44.8674,148.0868,0,U,51779,999,130,-.30644E-1,-.724392E-2,0
STARLINK-3617,2022-017N,2022-05-16T22:00:00.999936,15.25621764,.0001698,53.2173,112.1279,49.0022,177.9209,0,U,51780,999,130,-.3013E-1,-.723884E-2,0
STARLINK-3580,2022-017P,2022-05-16T22:00:00.999936,15.25284093,.0001721,53.2173,112.1198,48.2731,157.0642,0,U,51781,999,130,-.30454E-1,-.724217E-2,0
STARLINK-3616,2022-017Q,2022-05-16T22:00:00.999936,15.08838252,.0001961,53.2142,121.5186,57.7065,11.2902,0,U,51782,999,130,.49757E-3,.7639E-4,0
STARLINK-3628,2022-017R,2022-05-16T22:00:00.999936,15.25477753,.0001732,53.2173,112.1244,47.2308,170.5625,0,U,51783,999,130,-.30269E-1,-.724055E-2,0
STARLINK-3632,2022-017S,2022-05-17T06:00:00.999648,15.08858845,.0002216,53.2138,120.0246,42.6390,57.9470,0,U,51784,999,1371,-.30723E-2,-.48879E-3,0
