STARLINK-3446           
1 51747U 22016AK  22136.91667824 -.00721655  00000+0 -46462-1 0  9992
2 51747  53.2175  91.5207 0001560  53.0220 257.3131 15.10562335 14432
STARLINK-3501           
1 51748U 22016AL  22136.91667824 -.00719179  00000+0 -16252-1 0  9995
2 51748  53.2177  84.6263 0001478  48.7765  63.5580 15.44955233 14461
STARLINK-3451           
1 51749U 22016AM  22137.25001157 -.00027522  00000+0 -17171-2 0  9991
2 51749  53.2174  90.0197 0001828  43.7404 116.4721 15.08853187 14460
STARLINK-3505           
1 51750U 22016AN  22136.91667824 -.00719192  00000+0 -16033-1 0  9990
2 51750  53.2176  84.6500 0001355  58.2475  60.2398 15.45351153 14514
STARLINK-3506           
1 51751U 22016AP  22136.91667824 -.00719296  00000+0 -16366-1 0  9995
2 51751  53.2176  84.6142 0001358  55.6855  53.4343 15.44757373 14510
STARLINK-3511           
1 51752U 22016AQ  22136.91667824 -.00719087  00000+0 -15921-1 0  9990
2 51752  53.2176  84.6618 0001509  48.2879  73.1376 15.45549027 14512
STARLINK-3507           
1 51753U 22016AR  22136.91667824 -.00719212  00000+0 -16143-1 0  9998
2 51753  53.2177  84.6381 0001372  56.3241  59.1330 15.45153204 14468
STARLINK-3457           
1 51754U 22016AS  22136.91667824 -.00719073  00000+0 -15734-1 0  9999
2 51754  53.2177  84.6817 0001444  53.2121  73.3101 15.45891101 14511
STARLINK-3460           
1 51755U 22016AT  22136.91667824 -.00719043  00000+0 -15812-1 0  9994
2 51755  53.2176  84.6734 0001399  56.6397  67.6318 15.45746967 14515
STARLINK-3513           
1 51756U 22016AU  22136.91667824 -.00719072  00000+0 -14938-1 0  9995
2 51756  53.2177  84.7749 0001551  47.4031  91.4210 15.47384456 14460
STARLINK-3459           
1 51757U 22016AV  22136.91667824 -.00719045  00000+0 -14834-1 0  9991
2 51757  53.2177  84.7859 0001664  42.6681  98.1471 15.47582372 14512
STARLINK-3458           
1 51758U 22016AW  22136.91667824 -.00719116  00000+0 -14761-1 0  9990
2 51758  53.2177  84.7939 0001641  42.5240  99.9196 15.47726543 14532
STARLINK-3456           
1 51759U 22016AX  22136.91667824 -.00719217  00000+0 -14741-1 0  9991
2 51759  53.2177  84.7954 0001358  62.2231  81.3159 15.47771462  1309
STARLINK-3622           
1 51768U 22017A   22136.91667824 -.00722259  00000+0 -32218-1 0  9991
2 51768  53.2175 112.0668 0001652  42.1287  34.9239 15.23312257 13784
STARLINK-3621           
1 51769U 22017B   22136.91667824 -.00723148  00000+0 -31881-1 0  9995
2 51769  53.2175 112.0780 0001573  49.2491  54.1280 15.23708732 13784
STARLINK-3612           
1 51770U 22017C   22136.91667824 -.00722588  00000+0 -32043-1 0  9995
2 51770  53.2175 112.0724 0001749  39.1703  51.0908 15.23510407 13786
STARLINK-3614           
1 51771U 22017D   22136.91667824 -.00723350  00000+0 -31752-1 0  9990
2 51771  53.2175 112.0819 0001774  40.3752  72.7314 15.23853005 13783
STARLINK-3623           
1 51772U 22017E   22136.91667824 -.00723998  00000+0 -31365-1 0  9999
2 51772  53.2175 112.0938 0001758  43.6814  98.8190 15.24294162  1303
STARLINK-3624           
1 51773U 22017F   22136.91667824 -.00723590  00000+0 -31721-1 0  9994
2 51773  53.2175 112.0829 0001697  43.7928  72.9276 15.23897954  1307
STARLINK-3629           
1 51774U 22017G   22136.91667824 -.00724378  00000+0 -31012-1 0  9993
2 51774  53.2174 112.1044 0001603  53.8943 114.0173 15.24690322  1308
STARLINK-3620           
1 51775U 22017H   22136.91667824 -.00723839  00000+0 -31545-1 0  9996
2 51775  53.2175 112.0883 0001672  45.8043  83.8521 15.24096077  1305
STARLINK-3608           
1 51776U 22017J   22136.91667824 -.00724531  00000+0 -30834-1 0  9997
2 51776  53.2174 112.1096 0001720  47.2777 133.2012 15.24888360  1305
STARLINK-3625           
1 51777U 22017K   22136.91667824 -.00724341  00000+0 -31195-1 0  9998
2 51777  53.2175 112.0991 0001698  46.6965 108.5556 15.24492322  1303
STARLINK-3615           
1 51778U 22017L   22136.91667824 -.00710700  00000+0 -11228-1 0  9998
2 51778  53.2174 106.6828 0001098  86.4647 258.9944 15.55348289 13876
STARLINK-3611           
1 51779U 22017M   22136.91667824 -.00724392  00000+0 -30644-1 0  9994
2 51779  53.2173 112.1147 0001775  44.8674 148.0868 15.25086246  1300
STARLINK-3617           
1 51780U 22017N   22136.91667824 -.00723884  00000+0 -30130-1 0  9991
2 51780  53.2173 112.1279 0001698  49.0022 177.9209 15.25621764  1306
STARLINK-3580           
1 51781U 22017P   22136.91667824 -.00724217  00000+0 -30454-1 0  9992
2 51781  53.2173 112.1198 0001721  48.2731 157.0642 15.25284093  1302
STARLINK-3616           
1 51782U 22017Q   22136.91667824  .00007639  00000+0  49757-3 0  9991
2 51782  53.2142 121.5186 0001961  57.7065  11.2902 15.08838252  1304
STARLINK-3628           
1 51783U 22017R   22136.91667824 -.00724055  00000+0 -30269-1 0  9998
2 51783  53.2173 112.1244 0001732  47.2308 170.5625 15.25477753  1305
STARLINK-3632           
1 51784U 22017S   22137.25001157 -.00048879  00000+0 -30723-2 0  9997
2 51784  53.2138 120.0246 0002216  42.6390  57.9470 15.08858845 13715
